FLOCK 4BE-34            
1 60495U 24149AD  26062.66555720  .00021653  00000+0  58570-3 0  9990
2 60495  97.3835 146.2286 0002283 292.8518  67.2486 15.37724569 86095
FLOCK 4BE-32            
1 60497U 24149AF  26062.75053132  .00025621  00000+0  68237-3 0  9992
2 60497  97.3776 145.8206 0002612 290.6431  69.4533 15.38168747 86104
FLOCK 4BE-30            
1 60499U 24149AH  26062.69594063  .00023549  00000+0  63109-3 0  9990
2 60499  97.3858 146.3231 0001969 291.2109  68.8925 15.37994623 85470
FLOCK 4BE-11            
1 60501U 24149AK  26062.73711924  .00027800  00000+0  72069-3 0  9995
2 60501  97.3761 145.9322 0003017 290.9558  69.1365 15.38983616 86118
FLOCK 4BE-24            
1 60505U 24149AP  26062.71820234  .00026122  00000+0  68042-3 0  9994
2 60505  97.3774 146.1592 0002888 301.3841  58.7121 15.38849816 86123
TANAGER-1               
1 60507U 24149AR  26062.34010780  .00005195  00000+0  11793-3 0  9990
2 60507  97.3800 155.6291 0007094 222.8043 137.2653 15.43478970 86703
FLOCK 4BE-29            
1 60509U 24149AT  26062.74980442  .00029075  00000+0  72623-3 0  9999
2 60509  97.3859 147.3199 0001990 321.8734  38.2371 15.40114681 86160
FLOCK 4BE-2             
1 60511U 24149AV  26062.72760947  .00058497  00000+0  13405-2 0  9998
2 60511  97.3859 147.8531 0002670 300.5080  59.5903 15.42559767 86192
FLOCK 4BE-13            
1 60512U 24149AW  26062.72329825  .00024780  00000+0  65216-3 0  9991
2 60512  97.3773 146.2680 0003423 291.9511  68.1370 15.38540742 86131
FLOCK 4BE-27            
1 60513U 24149AX  26062.81159348  .00013937  00000+0  44719-3 0  9990
2 60513  97.3882 144.7472 0003020 335.4574  24.6524 15.32431026 85990
FLOCK 4BE-9             
1 60514U 24149AY  26062.70399766  .00021618  00000+0  59222-3 0  9999
2 60514  97.3846 146.2026 0001711 332.4598  27.6556 15.37331428 86091
FLOCK 4BE-6             
1 60516U 24149BA  26062.72393303  .00020156  00000+0  56953-3 0  9998
2 60516  97.3846 145.7564 0002355 321.1292  38.9782 15.36379821 86066
FLOCK 4BE-14            
1 60517U 24149BB  26062.46627429  .00020328  00000+0  55570-3 0  9994
2 60517  97.3759 145.5677 0003240 318.2649  41.8348 15.37405755 86068
FLOCK 4BE-1             
1 60518U 24149BC  26062.77817014  .00026220  00000+0  68675-3 0  9997
2 60518  97.3833 146.8076 0003091 311.9500  48.1481 15.38678429 86147
FLOCK 4BE-28            
1 60519U 24149BD  26062.81219993  .00029516  00000+0  72362-3 0  9994
2 60519  97.3798 147.2610 0003474 311.4449  48.6498 15.40676519 86198
FLOCK 4BE-35            
1 60558U 24149CU  26062.67740087  .00112740  00000+0  25825-2 0  9997
2 60558  97.3804 145.8444 0004448 278.2023  81.8720 15.42335140 86076
FLOCK 4BE-5             
1 60559U 24149CV  26062.73697979  .00025403  00000+0  70911-3 0  9992
2 60559  97.3896 145.9709 0002503 321.6929  38.4137 15.36711769 86068
