[{"OBJECT_NAME":"FLOCK 4BE-34","OBJECT_ID":"2024-149AD","EPOCH":"2026-03-03T15:58:24.142080","MEAN_MOTION":15.37724569,"ECCENTRICITY":0.0002283,"INCLINATION":97.3835,"RA_OF_ASC_NODE":146.2286,"ARG_OF_PERICENTER":292.8518,"MEAN_ANOMALY":67.2486,"EPHEMERIS_TYPE":0,"CLASSIFICATION_TYPE":"U","NORAD_CAT_ID":60495,"ELEMENT_SET_NO":999,"REV_AT_EPOCH":8609,"BSTAR":0.0005857,"MEAN_MOTION_DOT":0.00021653,"MEAN_MOTION_DDOT":0},{"OBJECT_NAME":"FLOCK 4BE-32","OBJECT_ID":"2024-149AF","EPOCH":"2026-03-03T18:00:45.906048","MEAN_MOTION":15.38168747,"ECCENTRICITY":0.0002612,"INCLINATION":97.3776,"RA_OF_ASC_NODE":145.8206,"ARG_OF_PERICENTER":290.6431,"MEAN_ANOMALY":69.4533,"EPHEMERIS_TYPE":0,"CLASSIFICATION_TYPE":"U","NORAD_CAT_ID":60497,"ELEMENT_SET_NO":999,"REV_AT_EPOCH":8610,"BSTAR":0.00068237,"MEAN_MOTION_DOT":0.00025621,"MEAN_MOTION_DDOT":0},{"OBJECT_NAME":"FLOCK 4BE-30","OBJECT_ID":"2024-149AH","EPOCH":"2026-03-03T16:42:09.270432","MEAN_MOTION":15.37994623,"ECCENTRICITY":0.0001969,"INCLINATION":97.3858,"RA_OF_ASC_NODE":146.3231,"ARG_OF_PERICENTER":291.2109,"MEAN_ANOMALY":68.8925,"EPHEMERIS_TYPE":0,"CLASSIFICATION_TYPE":"U","NORAD_CAT_ID":60499,"ELEMENT_SET_NO":999,"REV_AT_EPOCH":8547,"BSTAR":0.00063109,"MEAN_MOTION_DOT":0.00023549,"MEAN_MOTION_DDOT":0},{"OBJECT_NAME":"FLOCK 4BE-11","OBJECT_ID":"2024-149AK","EPOCH":"2026-03-03T17:41:27.102336","MEAN_MOTION":15.38983616,"ECCENTRICITY":0.0003017,"INCLINATION":97.3761,"RA_OF_ASC_NODE":145.9322,"ARG_OF_PERICENTER":290.9558,"MEAN_ANOMALY":69.1365,"EPHEMERIS_TYPE":0,"CLASSIFICATION_TYPE":"U","NORAD_CAT_ID":60501,"ELEMENT_SET_NO":999,"REV_AT_EPOCH":8611,"BSTAR":0.00072069,"MEAN_MOTION_DOT":0.000278,"MEAN_MOTION_DDOT":0},{"OBJECT_NAME":"FLOCK 4BE-24","OBJECT_ID":"2024-149AP","EPOCH":"2026-03-03T17:14:12.682176","MEAN_MOTION":15.38849816,"ECCENTRICITY":0.0002888,"INCLINATION":97.3774,"RA_OF_ASC_NODE":146.1592,"ARG_OF_PERICENTER":301.3841,"MEAN_ANOMALY":58.7121,"EPHEMERIS_TYPE":0,"CLASSIFICATION_TYPE":"U","NORAD_CAT_ID":60505,"ELEMENT_SET_NO":999,"REV_AT_EPOCH":8612,"BSTAR":0.00068042,"MEAN_MOTION_DOT":0.00026122,"MEAN_MOTION_DDOT":0},{"OBJECT_NAME":"TANAGER-1","OBJECT_ID":"2024-149AR","EPOCH":"2026-03-03T08:09:45.313920","MEAN_MOTION":15.4347897,"ECCENTRICITY":0.00070945,"INCLINATION":97.38,"RA_OF_ASC_NODE":155.6291,"ARG_OF_PERICENTER":222.8043,"MEAN_ANOMALY":137.2653,"EPHEMERIS_TYPE":0,"CLASSIFICATION_TYPE":"U","NORAD_CAT_ID":60507,"ELEMENT_SET_NO":999,"REV_AT_EPOCH":8670,"BSTAR":0.00011793279,"MEAN_MOTION_DOT":5.195e-5,"MEAN_MOTION_DDOT":0},{"OBJECT_NAME":"FLOCK 4BE-29","OBJECT_ID":"2024-149AT","EPOCH":"2026-03-03T17:59:43.101888","MEAN_MOTION":15.40114681,"ECCENTRICITY":0.000199,"INCLINATION":97.3859,"RA_OF_ASC_NODE":147.3199,"ARG_OF_PERICENTER":321.8734,"MEAN_ANOMALY":38.2371,"EPHEMERIS_TYPE":0,"CLASSIFICATION_TYPE":"U","NORAD_CAT_ID":60509,"ELEMENT_SET_NO":999,"REV_AT_EPOCH":8616,"BSTAR":0.00072623,"MEAN_MOTION_DOT":0.00029075,"MEAN_MOTION_DDOT":0},{"OBJECT_NAME":"FLOCK 4BE-2","OBJECT_ID":"2024-149AV","EPOCH":"2026-03-03T17:27:45.458208","MEAN_MOTION":15.42559767,"ECCENTRICITY":0.000267,"INCLINATION":97.3859,"RA_OF_ASC_NODE":147.8531,"ARG_OF_PERICENTER":300.508,"MEAN_ANOMALY":59.5903,"EPHEMERIS_TYPE":0,"CLASSIFICATION_TYPE":"U","NORAD_CAT_ID":60511,"ELEMENT_SET_NO":999,"REV_AT_EPOCH":8619,"BSTAR":0.0013405,"MEAN_MOTION_DOT":0.00058497,"MEAN_MOTION_DDOT":0},{"OBJECT_NAME":"FLOCK 4BE-13","OBJECT_ID":"2024-149AW","EPOCH":"2026-03-03T17:21:32.968800","MEAN_MOTION":15.38540742,"ECCENTRICITY":0.0003423,"INCLINATION":97.3773,"RA_OF_ASC_NODE":146.268,"ARG_OF_PERICENTER":291.9511,"MEAN_ANOMALY":68.137,"EPHEMERIS_TYPE":0,"CLASSIFICATION_TYPE":"U","NORAD_CAT_ID":60512,"ELEMENT_SET_NO":999,"REV_AT_EPOCH":8613,"BSTAR":0.00065216,"MEAN_MOTION_DOT":0.0002478,"MEAN_MOTION_DDOT":0},{"OBJECT_NAME":"FLOCK 4BE-27","OBJECT_ID":"2024-149AX","EPOCH":"2026-03-03T19:28:41.676672","MEAN_MOTION":15.32431026,"ECCENTRICITY":0.000302,"INCLINATION":97.3882,"RA_OF_ASC_NODE":144.7472,"ARG_OF_PERICENTER":335.4574,"MEAN_ANOMALY":24.6524,"EPHEMERIS_TYPE":0,"CLASSIFICATION_TYPE":"U","NORAD_CAT_ID":60513,"ELEMENT_SET_NO":999,"REV_AT_EPOCH":8599,"BSTAR":0.00044719,"MEAN_MOTION_DOT":0.00013937,"MEAN_MOTION_DDOT":0},{"OBJECT_NAME":"FLOCK 4BE-9","OBJECT_ID":"2024-149AY","EPOCH":"2026-03-03T16:53:45.397824","MEAN_MOTION":15.37331428,"ECCENTRICITY":0.0001711,"INCLINATION":97.3846,"RA_OF_ASC_NODE":146.2026,"ARG_OF_PERICENTER":332.4598,"MEAN_ANOMALY":27.6556,"EPHEMERIS_TYPE":0,"CLASSIFICATION_TYPE":"U","NORAD_CAT_ID":60514,"ELEMENT_SET_NO":999,"REV_AT_EPOCH":8609,"BSTAR":0.00059222,"MEAN_MOTION_DOT":0.00021618,"MEAN_MOTION_DDOT":0},{"OBJECT_NAME":"FLOCK 4BE-6","OBJECT_ID":"2024-149BA","EPOCH":"2026-03-03T17:22:27.813792","MEAN_MOTION":15.36379821,"ECCENTRICITY":0.0002355,"INCLINATION":97.3846,"RA_OF_ASC_NODE":145.7564,"ARG_OF_PERICENTER":321.1292,"MEAN_ANOMALY":38.9782,"EPHEMERIS_TYPE":0,"CLASSIFICATION_TYPE":"U","NORAD_CAT_ID":60516,"ELEMENT_SET_NO":999,"REV_AT_EPOCH":8606,"BSTAR":0.00056953,"MEAN_MOTION_DOT":0.00020156,"MEAN_MOTION_DDOT":0},{"OBJECT_NAME":"FLOCK 4BE-14","OBJECT_ID":"2024-149BB","EPOCH":"2026-03-03T11:11:26.098656","MEAN_MOTION":15.37405755,"ECCENTRICITY":0.000324,"INCLINATION":97.3759,"RA_OF_ASC_NODE":145.5677,"ARG_OF_PERICENTER":318.2649,"MEAN_ANOMALY":41.8348,"EPHEMERIS_TYPE":0,"CLASSIFICATION_TYPE":"U","NORAD_CAT_ID":60517,"ELEMENT_SET_NO":999,"REV_AT_EPOCH":8606,"BSTAR":0.00055570014,"MEAN_MOTION_DOT":0.00020328,"MEAN_MOTION_DDOT":0},{"OBJECT_NAME":"FLOCK 4BE-1","OBJECT_ID":"2024-149BC","EPOCH":"2026-03-03T18:40:33.900096","MEAN_MOTION":15.38678429,"ECCENTRICITY":0.0003091,"INCLINATION":97.3833,"RA_OF_ASC_NODE":146.8076,"ARG_OF_PERICENTER":311.95,"MEAN_ANOMALY":48.1481,"EPHEMERIS_TYPE":0,"CLASSIFICATION_TYPE":"U","NORAD_CAT_ID":60518,"ELEMENT_SET_NO":999,"REV_AT_EPOCH":8614,"BSTAR":0.00068675,"MEAN_MOTION_DOT":0.0002622,"MEAN_MOTION_DDOT":0},{"OBJECT_NAME":"FLOCK 4BE-28","OBJECT_ID":"2024-149BD","EPOCH":"2026-03-03T19:29:34.073952","MEAN_MOTION":15.40676519,"ECCENTRICITY":0.0003474,"INCLINATION":97.3798,"RA_OF_ASC_NODE":147.261,"ARG_OF_PERICENTER":311.4449,"MEAN_ANOMALY":48.6498,"EPHEMERIS_TYPE":0,"CLASSIFICATION_TYPE":"U","NORAD_CAT_ID":60519,"ELEMENT_SET_NO":999,"REV_AT_EPOCH":8619,"BSTAR":0.00072362,"MEAN_MOTION_DOT":0.00029516,"MEAN_MOTION_DDOT":0},{"OBJECT_NAME":"FLOCK 4BE-35","OBJECT_ID":"2024-149CU","EPOCH":"2026-03-03T16:15:27.435168","MEAN_MOTION":15.4233514,"ECCENTRICITY":0.0004448,"INCLINATION":97.3804,"RA_OF_ASC_NODE":145.8444,"ARG_OF_PERICENTER":278.2023,"MEAN_ANOMALY":81.872,"EPHEMERIS_TYPE":0,"CLASSIFICATION_TYPE":"U","NORAD_CAT_ID":60558,"ELEMENT_SET_NO":999,"REV_AT_EPOCH":8607,"BSTAR":0.0025825,"MEAN_MOTION_DOT":0.0011274,"MEAN_MOTION_DDOT":0},{"OBJECT_NAME":"FLOCK 4BE-5","OBJECT_ID":"2024-149CV","EPOCH":"2026-03-03T17:41:15.053856","MEAN_MOTION":15.36711769,"ECCENTRICITY":0.0002503,"INCLINATION":97.3896,"RA_OF_ASC_NODE":145.9709,"ARG_OF_PERICENTER":321.6929,"MEAN_ANOMALY":38.4137,"EPHEMERIS_TYPE":0,"CLASSIFICATION_TYPE":"U","NORAD_CAT_ID":60559,"ELEMENT_SET_NO":999,"REV_AT_EPOCH":8606,"BSTAR":0.00070911,"MEAN_MOTION_DOT":0.00025403,"MEAN_MOTION_DDOT":0}]
